COSMOS 2361 [-]         
1 25590U 98076A   17290.84012012  .00000028  00000-0  14261-4 0  9996
2 25590  82.9381  25.3300 0030244 263.2318 235.1024 13.72939308942765
COSMOS 2378 [-]         
1 26818U 01023A   17290.82123838  .00000057  00000-0  44170-4 0  9997
2 26818  82.9303  46.5058 0031917 215.6433 144.2592 13.73918235820374
COSMOS 2389 [-]         
1 27436U 02026A   17290.80019667  .00000040  00000-0  25690-4 0  9998
2 27436  82.9531 350.4831 0047778  89.0656  48.6618 13.74918515772310
COSMOS 2398 [-]         
1 27818U 03023A   17290.83391220  .00000029  00000-0  14594-4 0  9999
2 27818  82.9470 306.5434 0032901 101.3314 259.1548 13.72148818719757
COSMOS 2407 [+]         
1 28380U 04028A   17291.16845575  .00000057  00000-0  42437-4 0  9992
2 28380  82.9585 257.2755 0040755  98.7486 261.8290 13.76045575664913
COSMOS 2414 [+]         
1 28521U 05002A   17291.15403554  .00000017  00000-0  15571-5 0  9994
2 28521  82.9463 275.8497 0040578 351.0601   8.9831 13.87591497645338
COSMOS 2429 [-]         
1 32052U 07038A   17290.84630511  .00000020  00000-0  48153-5 0  9995
2 32052  82.9845  17.4041 0039732  71.1115 289.4343 13.74894297506803
COSMOS 2454 [-]         
1 35635U 09039A   17291.16705625  .00000042  00000-0  21604-4 0  9998
2 35635  82.9535 265.3609 0018506 314.6431  45.3224 13.89617976418133
COSMOS 2463 [+]         
1 36519U 10017A   17290.95142838  .00000016  00000-0  16177-5 0  9996
2 36519  82.9618  53.9769 0034734 268.5187  91.1989 13.71417066374295
